{
"type": "FeatureCollection",
"name": "Дороги",
"crs": { "type": "name", "properties": { "name": "urn:ogc:def:crs:OGC:1.3:CRS84" } },
"features": [
{"type":"Feature","properties":{"fid":1,"тип":"плиты","длинна":null},"geometry":{"type":"LineString","coordinates":[[69.066502651152618,60.987559487992939],[69.06667526288696,60.987601433292284],[69.066852702733541,60.987627514611155],[69.067016494632028,60.987637327453008],[69.067403916788052,60.987588907264268],[69.068037203004607,60.987502907045602],[69.068540106764829,60.987447621067858],[69.06864431885775,60.987438013720769],[69.068900707386973,60.987414377165642],[69.069331342014266,60.987388360174435],[69.069748565874576,60.987378242449878],[69.070013801042933,60.987360897771723],[69.070422084391993,60.987327653778777],[69.070784175099348,60.987315367946479],[69.071007687881675,60.987309586376725],[69.07122375023792,60.987309586376725],[69.07147769528639,60.987336389827249]]}},
{"type":"Feature","properties":{"fid":2,"тип":null,"длинна":null},"geometry":{"type":"LineString","coordinates":[[69.071288195781818,60.989194725930297],[69.071065285574377,60.989197558443955],[69.070555676430686,60.989201894363738],[69.069980503537522,60.989199003750635],[69.069736129562173,60.989197558443955],[69.069488775416389,60.989187441295478],[69.069306985020106,60.989151308596],[69.069181817862017,60.989083379009749],[69.0690745317265,60.988983652332777],[69.068921052949321,60.988847792298195],[69.068868899966787,60.988782752714322],[69.068852509029412,60.988700369050299],[69.068877568171814,60.988617032469058],[69.068877568171814,60.988617032469058],[69.06890466201196,60.988526929059404],[69.069000027465762,60.98825231380431],[69.069013810754001,60.988190344375731],[69.068991086954469,60.988135240263439],[69.068974928358884,60.988127893291654],[69.068895721500667,60.98809187958328],[69.068576843264552,60.988009494128001],[69.0682073021311,60.987922772365309],[69.067763256736924,60.987818705937691],[69.067371364325254,60.987716084543393],[69.067016494632028,60.987637327453008]]}},
{"type":"Feature","properties":{"fid":3,"тип":null,"длинна":null},"geometry":{"type":"LineString","coordinates":[[69.069380784702219,60.987537786447945],[69.069076021811767,60.987492773462535],[69.068859959455509,60.9874645884573],[69.06864431885775,60.987438013720769]]}},
{"type":"Feature","properties":{"fid":4,"тип":null,"длинна":null},"geometry":{"type":"LineString","coordinates":[[69.068576843264552,60.988009494128001],[69.068630486332339,60.987823764730244],[69.068670718633172,60.987726924847138],[69.068715421189637,60.987698740049595],[69.068836118092079,60.987685008985324],[69.06901343823273,60.98767344597924],[69.069198208799449,60.98767416866724],[69.069691427005779,60.987702353486576],[69.070354514926635,60.987753664247336]]}},
{"type":"Feature","properties":{"fid":5,"тип":null,"длинна":null},"geometry":{"type":"LineString","coordinates":[[69.068877568171814,60.988617032469058],[69.069652684790171,60.988674353111996],[69.069712288198758,60.988675437109848],[69.069751030414366,60.988665681127841],[69.069768911436952,60.988652673147158],[69.069908572256111,60.988276683107919],[69.069916569847166,60.988254368015319],[69.069904509191574,60.988235692278465],[69.069852356209012,60.988208953283902],[69.068991086954469,60.988135240263439]]}}
]
}
