{
"type": "FeatureCollection",
"name": "Здания",
"crs": { "type": "name", "properties": { "name": "urn:ogc:def:crs:OGC:1.3:CRS84" } },
"features": [
{"type":"Feature","properties":{"fid":1,"Тип":"Ангар","Этажность":"2","Площадь":1387.98},"geometry":{"type":"Polygon","coordinates":[[[69.069136161586997,60.988196203784931],[69.0690020539176,60.988587891829368],[69.069658888033914,60.98864078819215],[69.069712249192989,60.988484937182442],[69.06942320265847,60.988461659496579],[69.069462671193108,60.988346383857234],[69.069751717727641,60.988369661627516],[69.069792995703324,60.988249100799749],[69.069136161586997,60.988196203784931]]]}},
{"type":"Feature","properties":{"fid":2,"Тип":"Общежитие","Этажность":"2","Площадь":452.04},"geometry":{"type":"Polygon","coordinates":[[[69.067949308712841,60.987768737982918],[69.068517031179937,60.987814628500942],[69.068561171247765,60.987686181804229],[69.067993448780669,60.987640291100718],[69.067949308712841,60.987768737982918]]]}},
{"type":"Feature","properties":{"fid":3,"Тип":"Гараж","Этажность":"1","Площадь":813.28},"geometry":{"type":"Polygon","coordinates":[[[69.069356694198873,60.987600351734883],[69.069380784702219,60.987537786447945],[69.06940288684055,60.987480385022408],[69.07048898641537,60.98757875554103],[69.07044279377368,60.987698721882104],[69.069356694198873,60.987600351734883]]]}},
{"type":"Feature","properties":{"fid":4,"Тип":"Склад","Этажность":"2","Площадь":430.63},"geometry":{"type":"Polygon","coordinates":[[[69.068719682769284,60.987931341881989],[69.06920172533647,60.987965669265421],[69.0692380299825,60.987845752624985],[69.068978969611294,60.98782730426246],[69.068995378584347,60.987773104162116],[69.068772396388368,60.98775722498457],[69.068719682769284,60.987931341881989]]]}},
{"type":"Feature","properties":{"fid":5,"Тип":"Руины","Этажность":"1","Площадь":392.35},"geometry":{"type":"Polygon","coordinates":[[[69.069765701854507,60.988050341437336],[69.069810404410973,60.987912309364418],[69.07027033324924,60.987947345384775],[69.070225630692775,60.988085377305481],[69.069765701854507,60.988050341437336]]]}},
{"type":"Feature","properties":{"fid":6,"Тип":"Трансформатор","Этажность":"0","Площадь":7.14},"geometry":{"type":"Polygon","coordinates":[[[69.068781729981978,60.988198835820683],[69.068805571345436,60.988181310921327],[69.068852624993028,60.98819636777521],[69.068828783629584,60.988213892666273],[69.068781729981978,60.988198835820683]]]}},
{"type":"Feature","properties":{"fid":7,"Тип":"Будка","Этажность":"0","Площадь":25.76},"geometry":{"type":"Polygon","coordinates":[[[69.071136437143778,60.987074693320025],[69.071147612782894,60.9870439784859],[69.071282441064497,60.98705551837412],[69.071271265425381,60.987086233197076],[69.071136437143778,60.987074693320025]]]}}
]
}
