{
"type": "FeatureCollection",
"name": "Лес",
"crs": { "type": "name", "properties": { "name": "urn:ogc:def:crs:OGC:1.3:CRS84" } },
"features": [
{"type":"Feature","properties":{"fid":1,"Тип":null,"Площадь":null},"geometry":{"type":"MultiPolygon","coordinates":[[[[69.066499657297626,60.989995086586951],[69.071266494780133,60.989995086586951],[69.071157298336686,60.989866005759936],[69.070912924361352,60.989368826826059],[69.070760935669355,60.989287889984197],[69.070616397403469,60.989268378393277],[69.070126159367561,60.98926693308978],[69.069764068660206,60.989252480051071],[69.069510754173564,60.989234413743453],[69.069357275396371,60.989212734160745],[69.069269360368679,60.989212734160745],[69.069129292358397,60.989243085572383],[69.06902349630812,60.989228632522838],[69.06899716233886,60.989181030401191],[69.068990714433383,60.989169374950968],[69.069047337671549,60.989099277436665],[69.06903839716027,60.989073984481166],[69.068919190343024,60.988952578014491],[69.068662895685961,60.988847792298287],[69.06858690133997,60.988778416737418],[69.068610742703399,60.988680857098657],[69.068579450913873,60.988525483722235],[69.068561569891287,60.988473451537992],[69.068576470743452,60.988412747215349],[69.068512397079189,60.988310127739531],[69.068345507535057,60.988251591129512],[69.068203949439578,60.988180768913992],[69.068162227053534,60.988096215654039],[69.068078782281461,60.987992149794465],[69.067950634952936,60.987934335280762],[69.067730102341045,60.987859176255682],[69.067360561207579,60.987788353165513],[69.067166850129567,60.987742101266313],[69.066991020074155,60.98769440392477],[69.066639359963304,60.987643815757011],[69.066499657297626,60.987623856741997],[69.066499657297626,60.989995086586951]]]]}},
{"type":"Feature","properties":{"fid":3,"Тип":null,"Площадь":null},"geometry":{"type":"MultiPolygon","coordinates":[[[[69.069015319928852,60.987530283439277],[69.069005118891553,60.98756491593911],[69.068919867365551,60.987583999137165],[69.068768691736366,60.987614185507034],[69.068610921664416,60.987628879946691],[69.068436046739265,60.987635241001172],[69.06805643100337,60.987617798953643],[69.067984161870427,60.987619244332151],[69.067944674612207,60.987635866180455],[69.067930518802669,60.987685008985402],[69.067908167524422,60.987765949910241],[69.067891776587032,60.987796302703885],[69.067818762411491,60.98779919344463],[69.067760649088086,60.98778329436729],[69.067739787895064,60.987760891108465],[69.067726377128139,60.98772186603923],[69.067723396957689,60.987674891355297],[69.06772935729856,60.987640202313344],[69.067735317639404,60.987594672888328],[69.067820252496702,60.987557092996305],[69.068027374341639,60.987539025724708],[69.068238966442252,60.98751517691047],[69.068386484878587,60.987503613842556],[69.068566785189645,60.987492773462598],[69.068726224307724,60.987485546540547],[69.068827550102355,60.987489160001786],[69.068962857451311,60.98750519252296],[69.069015319928852,60.987530283439277]]]]}},
{"type":"Feature","properties":{"fid":4,"Тип":null,"Площадь":null},"geometry":{"type":"MultiPolygon","coordinates":[[[[69.066499657297626,60.986161895679423],[69.066499657297626,60.987390440377951],[69.066760056865817,60.987419781474493],[69.067102776465376,60.987458806914731],[69.067716691574148,60.987470369998931],[69.067943184526911,60.987441462280536],[69.068309745489913,60.987395209876418],[69.068604782362584,60.987359075138848],[69.068899819235256,60.987328721927533],[69.069406448208511,60.987304150259057],[69.06978791002372,60.987301259473291],[69.070300499337847,60.98726801541796],[69.070670040471285,60.987224653554392],[69.070968057514378,60.987142265850572],[69.071072363479473,60.987038196866756],[69.07121839183057,60.98690377392488],[69.071245213364463,60.986752005403844],[69.071170709103669,60.986564100516368],[69.071328658136551,60.98639353973342],[69.071510448532806,60.986172387524682],[69.07151619445753,60.986161895679423],[69.066499657297626,60.986161895679423]]]]}},
{"type":"Feature","properties":{"fid":5,"Тип":null,"Площадь":null},"geometry":{"type":"MultiPolygon","coordinates":[[[[69.06989042320005,60.988783037098848],[69.069862734670238,60.9887950519865],[69.069835046140426,60.988797172260306],[69.069797156573316,60.988792931712531],[69.069717876018515,60.988767576792327],[69.069553966644818,60.988731443615372],[69.06926787028344,60.988698201056309],[69.069032436819398,60.988677966438111],[69.068993694603805,60.988702537044254],[69.069002635115098,60.988784920702656],[69.069077139375864,60.988867304147469],[69.069232108238282,60.989001718783044],[69.069378136589407,60.98908699228933],[69.06947052187283,60.9891202344416],[69.06962847090567,60.98913251957606],[69.070123179197211,60.989140468778153],[69.070556793994911,60.989140468778153],[69.070677490897381,60.989107226647],[69.070707292601682,60.989053750102215],[69.070738584391208,60.988932343558233],[69.070920374787462,60.988678689103239],[69.070947196321342,60.988570289145898],[69.071006799729972,60.988490072939413],[69.071032131178612,60.988396848444985],[69.071030641093387,60.988309405065941],[69.071063422968138,60.98823352425277],[69.071121536291557,60.98814752577875],[69.071103655268942,60.988070921900047],[69.071082794075934,60.987932167234419],[69.071038091519469,60.987770286025381],[69.071067893223784,60.98764453844565],[69.071076833735049,60.987475428846949],[69.071041071689891,60.987416168005389],[69.071005309644733,60.987381478680994],[69.07095464674741,60.987367024784668],[69.070823519248435,60.987365579394663],[69.07077881669197,60.987365579394663],[69.070695371919911,60.987393041793332],[69.070650669363445,60.987511563452195],[69.070635768511295,60.98762719391285],[69.070549343568814,60.987777512882673],[69.070546363398364,60.987894587741557],[69.070498680671477,60.98802900649202],[69.070442057433297,60.988127290809906],[69.070343711809045,60.988228465525474],[69.07021556448052,60.988318077147369],[69.070185762776205,60.988383117682396],[69.070078476640674,60.988406243173891],[69.07000695255033,60.988534878413077],[69.06995032931215,60.988651950481483],[69.069902646585248,60.988750232872519],[69.06989042320005,60.988783037098848]]]]}}
]
}
