{
"type": "FeatureCollection",
"name": "Магистраль",
"crs": { "type": "name", "properties": { "name": "urn:ogc:def:crs:OGC:1.3:CRS84" } },
"features": [
{"type":"Feature","properties":{"fid":1,"тип":null,"длинна":null},"geometry":{"type":"LineString","coordinates":[[69.07161281975165,60.989996052572387],[69.071507282102004,60.989787057444438],[69.071364233921329,60.989438743083667],[69.071289729660535,60.989206049619703],[69.071288195781818,60.989194725930297],[69.071262908126656,60.989008042038158],[69.071245027104084,60.988548428443025],[69.071304630512699,60.988111933905252],[69.071417876989074,60.987617618281298],[69.07147769528639,60.987336389827249],[69.071510262272454,60.987183279054399],[69.071654800538369,60.986662931398584],[69.071803809059929,60.986227856401371],[69.07182382952243,60.986162207955161]]}}
]
}
