{
"type": "FeatureCollection",
"name": "Тропы",
"crs": { "type": "name", "properties": { "name": "urn:ogc:def:crs:OGC:1.3:CRS84" } },
"features": [
{"type":"Feature","properties":{"fid":1,"тип":null,"длинна":null},"geometry":{"type":"LineString","coordinates":[[69.06899716233886,60.989181030401191],[69.068745595415635,60.989368465501258],[69.068495261099443,60.98952166681773],[69.068307510362274,60.98965318811333],[69.068107838943391,60.989784708864526],[69.067881345990685,60.989956696717719],[69.067837610927072,60.989993268033807]]}},
{"type":"Feature","properties":{"fid":2,"тип":null,"длинна":null},"geometry":{"type":"LineString","coordinates":[[69.070839655627893,60.987177762962709],[69.070834694887779,60.987172980589683],[69.07072144841139,60.987011095512955],[69.070658864832339,60.986866554568955],[69.070670785514082,60.986727794644153],[69.07072442858184,60.986604933788342],[69.070798932842621,60.986521099049348],[69.071144632612601,60.986333192796458],[69.071323442838462,60.986174194329976],[69.071334344271804,60.986161511736547]]}},
{"type":"Feature","properties":{"fid":3,"тип":null,"длинна":null},"geometry":{"type":"LineString","coordinates":[[69.070798932842621,60.986521099049348],[69.070626082957631,60.986308620358159],[69.070455854613755,60.986162904173781]]}}
]
}
